OBJECT_NAME,OBJECT_ID,EPOCH,MEAN_MOTION,ECCENTRICITY,INCLINATION,RA_OF_ASC_NODE,ARG_OF_PERICENTER,MEAN_ANOMALY,EPHEMERIS_TYPE,CLASSIFICATION_TYPE,NORAD_CAT_ID,ELEMENT_SET_NO,REV_AT_EPOCH,BSTAR,MEAN_MOTION_DOT,MEAN_MOTION_DDOT
OPS 6582 (TRANSIT 5B-5),1964-083D,2026-06-27T12:13:49.770048,13.57013732,.0039631,90.0758,203.1227,246.5249,269.1343,0,U,965,999,4501,.80373E-4,.66E-6,0
LES-1,1965-008C,2026-06-27T13:06:02.456928,9.88354833,.0015528,32.1476,20.1688,307.2545,52.6536,0,U,1002,999,21721,-.40596E-3,.5E-7,0
SOLRAD 7B,1965-016D,2026-06-27T12:12:22.168224,13.94976764,.001853,70.0774,214.3205,109.9930,250.3173,0,U,1291,999,11814,.55914E-4,.23E-6,0
SECOR 4 (EGRS 4),1965-027B,2026-06-27T13:01:14.428704,12.92667948,.003138,90.2488,15.8108,170.1742,216.3529,0,U,1315,999,88826,.31815E-3,.94E-6,0
TIROS 10,1965-051A,2026-06-27T07:33:54.715104,14.41634423,.0056124,98.5049,297.6018,49.5177,311.0884,0,U,1430,999,19737,.51989E-4,.128E-5,0
ALOUETTE 2,1965-098A,2026-06-27T12:12:39.140640,12.28355092,.1330078,79.8000,267.8703,211.5860,139.8310,0,U,1804,999,68054,.20955E-3,.64E-5,0
OV3-3,1966-070A,2026-06-27T11:24:30.043008,13.45741868,.1010962,81.3256,321.9324,130.9858,238.3318,0,U,2389,999,60035,.82816E-3,.18697E-3,0
SECOR 7 (EGRS 7),1966-077B,2026-06-23T17:35:29.133312,8.59615369,.00113444,90.3372,277.5165,52.8831,307.3055,0,U,2411,999,87794,-.70552719E-2,-.13E-6,0
ERS 15,1966-077C,2026-06-25T17:11:14.207424,8.59079403,.00071762,90.3368,277.3329,61.6001,298.5573,0,U,2412,999,39119,0,.2E-7,0
ISIS 1,1969-009A,2026-06-27T08:53:20.947776,11.30434943,.1706591,88.4434,143.2808,227.6478,116.7151,0,U,3669,999,36092,.33303E-4,.49E-6,0
SECOR 13 (EGRS 13),1969-037B,2026-06-27T09:33:46.638144,13.42977342,.0038869,99.6474,49.4416,225.5153,307.2140,0,U,3891,999,80312,.4373E-4,-.17E-6,0
ATS 5,1969-069A,2026-06-27T11:33:38.601792,0.99491203,.0005286,0.2679,146.8446,130.4611,284.4477,0,U,4068,999,4643,0,-.233E-5,0
OPS 7613 (P/L 4),1969-082E,2026-06-27T12:11:27.741408,13.95998080,.0018217,70.0153,81.8439,120.4303,52.7880,0,U,4237,999,88774,.43994E-4,.8E-7,0
OPS 7613 (P/L 1),1969-082B,2026-06-27T11:01:18.016320,13.99200013,.0017637,70.0106,302.9470,46.6871,313.5703,0,U,4256,999,89190,.84304E-4,.69E-6,0
SHINSEI (MS-F2),1971-080A,2026-06-27T08:34:52.847904,12.74253019,.0639595,32.0538,59.1198,106.3509,260.8341,0,U,5485,999,55055,.65622E-4,.49E-6,0
PROSPERO (BLACK ARROW),1971-093A,2026-06-27T08:45:17.747136,14.01638975,.0500924,82.0390,281.8946,197.8077,160.4981,0,U,5580,999,74995,.4373E-3,.2051E-4,0
OPS 7898 (P/L 2),1971-110C,2026-06-27T12:02:53.999232,13.74759691,.0007259,69.9905,341.6322,175.1222,184.9944,0,U,5680,999,34963,.40868E-4,-.11E-6,0
NOAA 2 (ITOS-D),1972-082A,2026-06-27T12:34:34.279104,12.53215313,.000441,102.0072,197.2088,146.1202,20.7649,0,U,6235,999,45624,.16182E-3,-.21E-6,0
OSCAR 7 (AO-7),1974-089B,2026-06-27T12:57:43.236864,12.53698269,.0012647,101.9899,191.8946,110.9590,56.0288,0,U,7530,999,36181,.11736E-3,-.28E-6,0
TIROS N,1978-096A,2026-06-27T12:00:57.697056,14.19377893,.0009794,98.4528,199.0867,206.3115,153.7565,0,U,11060,999,68021,.70278E-4,.106E-5,0
PHASE 3B (AO-10),1983-058B,2026-06-26T14:17:11.121504,2.05872938,.60076223,25.9202,218.0092,118.2548,314.1516,0,U,14129,999,29568,0,-.217E-5,0
HILAT,1983-063A,2026-06-27T11:22:30.703872,14.38717736,.0037763,82.0240,151.4631,259.2347,220.9703,0,U,14154,999,24906,.10742E-3,.347E-5,0
UOSAT 2 (UO-11),1984-021B,2026-06-27T11:46:36.314112,14.90807786,.0008518,97.8062,143.9504,140.7030,219.4808,0,U,14781,999,25866,.12594E-3,.1184E-4,0
NOAA 9,1984-123A,2026-06-27T12:34:09.324192,14.17070722,.0013965,99.0985,205.4012,324.1802,156.4943,0,U,15427,999,14488,.62645E-4,.79E-6,0
GEOSAT,1985-021A,2026-06-27T12:00:11.085120,14.39970822,.0001503,108.0417,102.9080,293.9523,66.1462,0,U,15595,999,16425,.77424E-4,.108E-5,0
EUTELSAT 1-F4 (ECS 4),1987-078B,2026-06-27T12:35:20.141088,0.98687263,.0010456,13.8212,342.0539,45.2332,329.4802,0,U,18351,999,12686,0,.13E-6,0
PACSAT (AO-16),1990-005D,2026-06-27T08:26:03.322176,14.33939713,.0010255,98.8517,214.2692,195.9702,175.0928,0,U,20439,999,90339,.62326E-4,.127E-5,0
LUSAT (LO-19),1990-005G,2026-06-27T12:11:07.522080,14.34126104,.0011725,98.8846,200.5976,170.5481,189.5925,0,U,20442,999,90387,.57951E-4,.116E-5,0
IRS-1B,1991-061A,2026-06-27T12:25:28.689888,13.97876193,.0023987,99.4111,186.7221,336.8093,186.0266,0,U,21688,999,66993,-.10296E-3,-.193E-5,0
COSMOS 2197,1992-042A,2026-06-27T12:54:02.210112,12.64252123,.0011487,82.5928,222.3208,247.9880,268.1256,0,U,22034,999,56659,.12613E-3,.34E-6,0
PEGASUS R/B,1993-009C,2026-06-27T06:03:57.071232,14.57982422,.0043854,24.9790,26.6738,215.3697,144.3900,0,U,22491,999,77110,.13471E-3,.844E-5,0
EYESAT A (AO-27),1993-061C,2026-06-27T03:19:54.492096,14.30944709,.00094788,98.6877,245.5486,74.1419,286.0808,0,U,22825,999,70842,.50002183E-4,.87E-6,0
ITAMSAT (IO-26),1993-061D,2026-06-27T11:09:17.200224,14.31371971,.0009852,98.6825,245.7929,58.2227,301.9914,0,U,22826,999,70878,.50381E-4,.89E-6,0
RADIO ROSTO (RS15),1994-085A,2026-06-27T11:49:21.031392,11.27583400,.0156293,64.8183,286.5498,1.9723,358.1786,0,U,23439,999,29706,-.26292E-3,-.52E-6,0
JAS-2 (FO-29),1996-046B,2026-06-27T12:20:08.126880,13.53274814,.0350889,98.5231,25.9709,69.7149,294.1339,0,U,24278,999,47456,.1629E-4,-.17E-6,0
FORTE,1997-047A,2026-06-27T12:46:18.395040,14.27949029,.0024619,69.9540,350.6535,264.8375,94.9937,0,U,24920,999,50016,.83792E-4,.15E-5,0
NOAA 15,1998-030A,2026-06-27T11:48:19.574208,14.27149364,.0009427,98.5063,198.8460,323.0776,36.9755,0,U,25338,999,46276,.56164E-4,.94E-6,0
TECHSAT 1B (GO-32),1998-043D,2026-06-27T11:02:54.018816,14.24430297,.0001573,99.0071,171.4783,143.8362,216.2923,0,U,25397,999,45279,.4412E-4,.55E-6,0
ISS (ZARYA),1998-067A,2026-06-27T12:13:38.285760,15.49454046,.0004278,51.6322,248.9966,238.4942,121.5629,0,U,25544,999,57335,.12016E-3,.628E-4,0
ORSTED,1999-008B,2026-06-27T10:48:44.460576,14.51815848,.0132641,96.4820,83.6343,153.0875,207.7287,0,U,25635,999,44345,.11092E-3,.469E-5,0
LANDSAT 7,1999-020A,2026-06-27T12:22:57.255744,14.63925046,.0001799,97.8580,181.6781,84.4872,80.6248,0,U,25682,999,44735,.86278E-4,.407E-5,0
ORBCOMM FM36,1999-065E,2026-06-27T12:30:11.039040,14.39215321,.0004357,45.0379,110.5274,5.0079,355.0813,0,U,25984,999,38847,.3314E-3,.894E-5,0
DMSP 5D-3 F15 (USA 147),1999-067A,2026-06-27T13:13:22.759104,14.17567156,.000943,98.9956,217.2351,339.0063,195.0014,0,U,25991,999,37211,.92771E-4,.143E-5,0
OPAL (OO-38),2000-004C,2026-06-27T09:44:08.998080,14.37968363,.0035944,100.1910,117.1129,7.4336,352.7371,0,U,26063,999,38475,.65005E-4,.139E-5,0
IMAGE,2000-017A,2026-06-27T08:30:03.788928,1.68666239,.7424863,94.2374,315.5053,286.6524,9.3238,0,U,26113,999,16167,0,-.86E-6,0
CLUSTER II-FM7 (SAMBA),2000-041A,2026-06-28T07:05:50.148384,0.44873944,.90650285,149.8957,52.7269,270.0741,359.5894,0,U,26410,999,2036,0,.10019E-3,0
CLUSTER II-FM8 (TANGO),2000-045B,2026-06-26T10:39:58.262976,0.44409415,.9067324,150.1190,53.5568,270.7220,2.5445,0,U,26464,999,2035,0,.76E-4,0
MEGSAT-1,2000-057B,2026-06-27T12:09:43.445376,15.05546132,.0042547,64.5503,36.0433,282.5192,77.1167,0,U,26546,999,39921,.18566E-3,.2552E-4,0
PHASE 3D (AO-40),2000-072B,2026-06-26T20:57:12.420288,1.25588526,.7931595,9.4135,349.4112,181.5140,172.6701,0,U,26609,999,11763,0,-.77E-6,0
ODIN,2001-007A,2026-06-27T08:53:30.844032,15.79674935,.0006093,97.3807,219.9927,136.5309,223.6439,0,U,26702,999,39100,.12437E-2,.232407E-2,0
OMNI-M1,2001-026A,2026-06-27T03:58:03.844992,3.92401983,.0013923,44.8278,242.9639,55.3355,304.8602,0,U,26857,999,20596,0,.5E-7,0
PCSAT (NO-44),2001-043C,2026-06-27T11:54:50.737248,14.31959230,.0006036,67.0492,217.6076,265.2243,94.8169,0,U,26931,999,29192,.63336E-4,.87E-6,0
PROBA-1,2001-049B,2026-06-27T11:47:29.191776,15.07540785,.0056534,97.9604,187.3832,88.1535,272.6165,0,U,26958,999,34517,.15186E-3,.2321E-4,0
SPOT 5,2002-021A,2026-06-27T08:25:13.997280,14.54757303,.0128294,97.9842,216.7640,244.5674,114.2202,0,U,27421,999,26432,.74976E-4,.308E-5,0
FENGYUN 1D,2002-024B,2026-06-27T08:45:39.360960,14.10225603,.0014832,98.9515,228.6491,210.8734,149.1565,0,U,27431,999,24091,.58225E-4,.59E-6,0
SAUDISAT 1C (SO-50),2002-058C,2026-06-27T11:20:13.262208,14.83067272,.0075023,64.5520,97.1634,260.5582,98.7038,0,U,27607,999,26598,.12441E-3,.908E-5,0
CORIOLIS,2003-001A,2026-06-27T11:38:30.309792,14.19947508,.0013975,98.7127,185.2126,178.4112,181.7111,0,U,27640,999,21568,.70397E-4,.106E-5,0
CUTE-1 (CO-55),2003-031E,2026-06-27T07:02:27.066048,14.24341593,.0010153,98.6736,186.7252,149.6738,210.5030,0,U,27844,999,19311,.14447E-3,.29E-5,0
CUBESAT XI-IV (CO-57),2003-031J,2026-06-26T22:27:05.834016,14.23625736,.0009653,98.6768,186.0767,168.4758,191.6643,0,U,27848,999,19276,.1258E-3,.243E-5,0
MOZHAETS 4 (RS22),2003-042A,2026-06-27T12:55:24.546720,14.73483611,.0010081,98.3470,3.1900,232.4514,212.2707,0,U,27939,999,21707,.10778E-3,.646E-5,0
IRS-P6 (RESOURCESAT-1),2003-046A,2026-06-27T13:24:38.039040,14.36166636,.0063184,98.1904,214.5647,312.0640,209.4451,0,U,28051,999,18201,.14147E-3,.38E-5,0
SAUDISAT 2,2004-025F,2026-06-27T11:16:22.836000,14.56689363,.0023432,98.5509,178.7174,264.9912,94.8610,0,U,28371,999,16724,.65355E-4,.243E-5,0
COSMOS 2407,2004-028A,2026-06-27T11:37:44.015808,13.76335469,.0038189,82.9603,67.2076,222.1892,311.7007,0,U,28380,999,10129,.40354E-4,.55E-6,0
COSMOS 2414,2005-002A,2026-06-27T08:11:13.149024,13.87927009,.003889,82.9492,35.9648,301.6173,58.1197,0,U,28521,999,8522,.3125E-4,.53E-6,0
INMARSAT 4-F1,2005-009A,2026-06-27T13:18:11.842272,1.00272178,.0002961,5.1811,42.7742,53.8643,196.6875,0,U,28628,999,7777,0,.4E-6,0
HAMSAT (VO-52),2005-017B,2026-06-27T12:40:34.948128,15.09821093,.0019094,97.9904,202.0368,7.1138,353.0357,0,U,28650,999,14832,.29763E-3,.4762E-4,0
NOAA 18,2005-018A,2026-06-27T12:37:17.328000,14.13731075,.0015265,98.8114,258.0530,119.8569,240.4123,0,U,28654,999,8777,.47343E-4,.46E-6,0
